{
  "type": "FeatureCollection",
  "features": [
    {
      "type": "Feature",
      "properties": {
        "norad_id": 36519,
        "name": "COSMOS 2463",
        "group": "musson",
        "lat": NaN,
        "lon": NaN,
        "alt_km": NaN,
        "timestamp": "2025-12-01T02:47:01.961478+00:00",
        "meta": {
          "OBJECT_NAME": "COSMOS 2463",
          "OBJECT_ID": "2010-017A",
          "EPOCH": "2025-11-30T15:25:00.546816",
          "MEAN_MOTION": 13.71647453,
          "ECCENTRICITY": 0.0035221,
          "INCLINATION": 82.9624,
          "RA_OF_ASC_NODE": 35.6016,
          "ARG_OF_PERICENTER": 322.6983,
          "MEAN_ANOMALY": 147.2975,
          "EPHEMERIS_TYPE": 0,
          "CLASSIFICATION_TYPE": "U",
          "NORAD_CAT_ID": 36519,
          "ELEMENT_SET_NO": 999,
          "REV_AT_EPOCH": 78071,
          "BSTAR": 4.8675e-05,
          "MEAN_MOTION_DOT": 5.9e-07,
          "MEAN_MOTION_DDOT": 0
        }
      },
      "geometry": {
        "type": "Point",
        "coordinates": [
          NaN,
          NaN
        ]
      }
    }
  ]
}