COSMOS 2463             
1 36519U 10017A   25334.64236744  .00000059  00000+0  48675-4 0  9993
2 36519  82.9624  35.6016 0035221 322.6983 147.2975 13.71647453780713
